      2.10          N: GNSS NAV DATA                        RINEX VERSION / TYPE
fic2rin                                 11/30/2024 00:59:02 PGM / RUN BY / DATE
                                                            END OF HEADER
25 24 11 29  1 59 28.0  .498622190207D-03 -.341060513165D-12  .000000000000D+00
     .980000000000D+02  .898437500000D+02  .456626163170D-08 -.899925661790D+00
     .485777854919D-05  .121333018178D-01  .105407088995D-04  .515371047974D+04
     .439168000000D+06  .279396772385D-07  .293169379371D+01  .244006514549D-06
     .949721646484D+00  .175156250000D+03  .109930359228D+01 -.808283668259D-08
    -.785747015231D-10  .100000000000D+01  .234200000000D+04  .000000000000D+00
     .240000000000D+01  .000000000000D+00  .558793544769D-08  .980000000000D+02
     .432000000000D+06  .400000000000D+01
7  24 11 29  1 59 44.0 -.176834873855D-04  .181898940355D-11  .000000000000D+00
     .120000000000D+02 -.228125000000D+02  .499413659726D-08  .178603864711D-01
    -.108405947685D-05  .188717463752D-01  .725686550140D-05  .515358138084D+04
     .439184000000D+06 -.178813934326D-06  .190433306154D+01  .320374965668D-06
     .949942495912D+00  .238062500000D+03 -.209169696163D+01 -.847535303247D-08
    -.388587614805D-09  .100000000000D+01  .234200000000D+04  .000000000000D+00
     .240000000000D+01  .000000000000D+00 -.107102096081D-07  .120000000000D+02
     .432000000000D+06  .400000000000D+01
26 24 11 29  1 59 44.0  .985665246844D-05 -.134150468512D-10  .000000000000D+00
     .300000000000D+01  .692187500000D+02  .488270338419D-08 -.166241129941D+01
     .331737101078D-05  .964063359424D-02  .107530504465D-04  .515374265480D+04
     .439184000000D+06  .819563865662D-07  .286578906213D+01 -.134110450745D-06
     .930447678846D+00  .150468750000D+03  .585237811653D+00 -.802390565645D-08
    -.514307137242D-10  .100000000000D+01  .234200000000D+04  .000000000000D+00
     .240000000000D+01  .000000000000D+00  .651925802231D-08  .300000000000D+01
     .432000000000D+06  .400000000000D+01
2  24 11 29  2  0  0.0 -.303929671645D-03  .875388650456D-11  .000000000000D+00
     .600000000000D+02 -.904687500000D+02  .461126350621D-08  .292316932617D+01
    -.451132655144D-05  .164391536964D-01  .204518437386D-05  .515368398285D+04
     .439200000000D+06  .283122062683D-06 -.132217258438D+01  .236555933952D-06
     .966431158228D+00  .340031250000D+03 -.109093689607D+01 -.809855162290D-08
    -.292512184307D-09  .100000000000D+01  .234200000000D+04  .000000000000D+00
     .240000000000D+01  .000000000000D+00 -.176951289177D-07  .600000000000D+02
     .432000000000D+06  .400000000000D+01
10 24 11 29  2  0  0.0 -.213902909309D-03 -.148929757415D-10  .000000000000D+00
     .300000000000D+01 -.706875000000D+02  .354514766963D-08 -.153514409742D+01
    -.374764204025D-05  .100210818928D-01  .111721456051D-04  .515368744278D+04
     .439200000000D+06  .225380063057D-06 -.186534270473D+00 -.875443220139D-07
     .987149028937D+00  .177906250000D+03 -.235363900345D+01 -.732173355102D-08
     .191436545529D-09  .100000000000D+01  .234200000000D+04  .000000000000D+00
     .240000000000D+01  .000000000000D+00  .232830643654D-08  .300000000000D+01
     .432000000000D+06  .400000000000D+01
5  24 11 29  2  0  0.0 -.194435939193D-03 -.113686837722D-11  .000000000000D+00
     .360000000000D+02 -.655000000000D+02  .387087552322D-08  .310933234168D+01
    -.335834920406D-05  .565348856617D-02  .113528221846D-04  .515371283913D+04
     .439200000000D+06  .391155481339D-07 -.237732961001D+00  .372529029846D-08
     .974381186110D+00  .166781250000D+03  .133445105185D+01 -.751888462030D-08
     .153220667970D-09  .100000000000D+01  .234200000000D+04  .000000000000D+00
     .240000000000D+01  .000000000000D+00 -.107102096081D-07  .360000000000D+02
     .432000000000D+06  .400000000000D+01
12 24 11 29  2  0  0.0 -.555108767003D-03 -.238742359215D-11  .000000000000D+00
     .670000000000D+02  .101343750000D+03  .431160816722D-08 -.694840427053D+00
     .527873635292D-05  .887294311542D-02  .106114894152D-04  .515379635239D+04
     .439200000000D+06 -.707805156708D-07  .302029399352D+01  .108033418655D-06
     .961695048722D+00  .183781250000D+03  .145783245376D+01 -.795854579109D-08
     .382158775590D-10  .100000000000D+01  .234200000000D+04  .000000000000D+00
     .340000000000D+01  .000000000000D+00 -.125728547573D-07  .670000000000D+02
     .432000000000D+06  .400000000000D+01
6  24 11 29  2  0  0.0 -.445451587439D-05 -.296722646453D-10  .000000000000D+00
     .530000000000D+02 -.101718750000D+03  .397873715894D-08  .876111598113D+00
    -.545382499695D-05  .331742607523D-02  .414811074734D-05  .515373958397D+04
     .439200000000D+06  .931322574615D-08 -.121965929340D+01 -.447034835815D-07
     .989184291771D+00  .313156250000D+03 -.760350966573D+00 -.795033116320D-08
    -.362157942475D-09  .100000000000D+01  .234200000000D+04  .000000000000D+00
     .240000000000D+01  .000000000000D+00  .372529029846D-08  .530000000000D+02
     .432000000000D+06  .400000000000D+01
3  24 11 29  2  0  0.0  .612065196037D-03  .966338120634D-11  .000000000000D+00
     .100000000000D+01 -.608750000000D+02  .366658129926D-08 -.560441047385D+00
    -.325031578541D-05  .564540631603D-02  .107865780592D-04  .515362576675D+04
     .439200000000D+06 -.242143869400D-07 -.184004563271D+00  .856816768646D-07
     .987517817418D+00  .185687500000D+03  .115490147058D+01 -.758031575058D-08
     .126433837905D-09  .100000000000D+01  .234200000000D+04  .000000000000D+00
     .340000000000D+01  .000000000000D+00  .139698386192D-08  .257000000000D+03
     .432000000000D+06  .400000000000D+01
31 24 11 29  2  0  0.0 -.220936257392D-03  .682121026330D-12  .000000000000D+00
     .530000000000D+02 -.191875000000D+02  .481484341470D-08 -.105166080210D+01
    -.735744833946D-06  .107278947253D-01  .692903995514D-05  .515358995628D+04
     .439200000000D+06  .206753611565D-06  .192663775949D+01  .800937414169D-07
     .953879498121D+00  .236062500000D+03  .777630690137D+00 -.814141055100D-08
    -.391087718945D-09  .100000000000D+01  .234200000000D+04  .000000000000D+00
     .240000000000D+01  .000000000000D+00 -.130385160446D-07  .530000000000D+02
     .432000000000D+06  .400000000000D+01
29 24 11 29  2  0  0.0 -.560131855309D-03  .306954461848D-11  .000000000000D+00
     .360000000000D+02  .747500000000D+02  .473233997810D-08  .269761366015D+01
     .391528010368D-05  .286191760097D-02  .183656811714D-05  .515373986435D+04
     .439200000000D+06 -.279396772385D-07 -.220948511424D+01  .707805156708D-07
     .968648159375D+00  .349968750000D+03  .266556952511D+01 -.837892044424D-08
     .247867467532D-09  .100000000000D+01  .234200000000D+04  .000000000000D+00
     .240000000000D+01  .000000000000D+00 -.977888703346D-08  .360000000000D+02
     .432000000000D+06  .400000000000D+01
24 24 11 29  2  0  0.0 -.477310735732D-03  .261479726760D-11  .000000000000D+00
     .300000000000D+02 -.179375000000D+02  .540343936065D-08  .895688139635D+00
    -.985339283943D-06  .163480448537D-01  .676698982716D-05  .515368586540D+04
     .439200000000D+06 -.195577740669D-06  .180400123889D+01  .577419996262D-07
     .933653181054D+00  .237843750000D+03  .103453460301D+01 -.861285876014D-08
    -.538236705433D-09  .100000000000D+01  .234200000000D+04  .000000000000D+00
     .240000000000D+01  .000000000000D+00  .232830643654D-08  .300000000000D+02
     .432000000000D+06  .400000000000D+01
16 24 11 29  2  0  0.0 -.116396229714D-03  .966338120634D-11  .000000000000D+00
     .530000000000D+02  .945312500000D+02  .418195990970D-08 -.250028369647D+01
     .449270009995D-05  .142976823263D-01  .109691172838D-04  .515366554642D+04
     .439200000000D+06  .171363353729D-06  .303792318919D+01 -.167638063431D-06
     .961081060541D+00  .165250000000D+03  .855834010156D+00 -.763210362204D-08
     .106433004790D-09  .100000000000D+01  .234200000000D+04  .000000000000D+00
     .240000000000D+01  .000000000000D+00 -.102445483208D-07  .530000000000D+02
     .432000000000D+06  .400000000000D+01
8  24 11 29  2  0  0.0  .425771344453D-03  .966338120634D-11  .000000000000D+00
     .860000000000D+02  .100343750000D+03  .494806324955D-08  .279234071302D+01
     .519491732121D-05  .100501468405D-01  .315159559250D-05  .515371793365D+04
     .439200000000D+06 -.176951289177D-06 -.232261661721D+01 -.894069671631D-07
     .950450599545D+00  .314281250000D+03  .382238494750D+00 -.828855953749D-08
     .294297972978D-09  .100000000000D+01  .234200000000D+04  .000000000000D+00
     .340000000000D+01  .000000000000D+00  .465661287308D-08  .860000000000D+02
     .432000000000D+06  .400000000000D+01
4  24 11 29  2  0  0.0  .487361103296D-03  .636646291241D-11  .000000000000D+00
     .640000000000D+02  .197812500000D+02  .459626288137D-08  .247848915171D+01
     .100210309029D-05  .317881035153D-02  .633858144283D-05  .515368058205D+04
     .439200000000D+06 -.819563865662D-07  .892225374505D+00  .745058059692D-08
     .966116145152D+00  .261500000000D+03 -.299693812749D+01 -.798926135623D-08
     .363943731146D-09  .100000000000D+01  .234200000000D+04  .000000000000D+00
     .240000000000D+01  .000000000000D+00 -.465661287308D-08  .320000000000D+03
     .432000000000D+06  .400000000000D+01
9  24 11 29  2  0  0.0  .464635435492D-03  .168256519828D-10  .000000000000D+00
     .310000000000D+02  .213125000000D+02  .468376652625D-08 -.295224553690D+01
     .116974115372D-05  .318338733632D-02  .667199492455D-05  .515355120277D+04
     .439200000000D+06  .372529029846D-08  .831279161337D+00  .298023223877D-07
     .959924903217D+00  .252250000000D+03  .202311040278D+01 -.800640492747D-08
     .376444251843D-09  .100000000000D+01  .234200000000D+04  .000000000000D+00
     .240000000000D+01  .000000000000D+00  .465661287308D-09  .310000000000D+02
     .432000000000D+06  .400000000000D+01
